0 COSMOS 2251 DEB
1 34812U 93036ABB 13281.46174354  .00013013  00000-0  25817-2 0  1634
2 34812 074.0103 058.7962 0038708 222.5596 200.0827 14.61773871238185
0 COSMOS 2251 DEB
1 34812U 93036ABB 13282.14485140  .00024613  00000-0  48657-2 0  1644
2 34812 074.0104 057.4871 0038574 221.2337 194.7343 14.61808606238289
0 COSMOS 2251 DEB
1 34812U 93036ABB 13283.17257341  .00021078  00000-0  41665-2 0  1653
2 34812 074.0102 055.5169 0038560 219.1868 203.0262 14.61846939238438
0 COSMOS 2251 DEB
1 34812U 93036ABB 13284.12992078  .00020953  00000-0  41393-2 0  1662
2 34812 074.0100 053.6816 0038531 217.3603 201.0203 14.61874887238570
0 COSMOS 2251 DEB
1 34812U 93036ABB 13286.38754808  .00016232  00000-0  32052-2 0  1688
2 34812 074.0097 049.3525 0038411 213.0203 202.1177 14.61949130238903
0 COSMOS 2251 DEB
1 34812U 93036ABB 13287.49617110  .00018595  00000-0  36673-2 0  1693
2 34812 074.0101 047.2267 0038310 210.8231 276.6968 14.61982358239075
0 COSMOS 2251 DEB
1 34812U 93036ABB 13288.09819499  .00030697  00000-0  60351-2 0  1703
2 34812 074.0101 046.0722 0038201 209.7508 205.0407 14.62014209239156
0 COSMOS 2251 DEB
1 34812U 93036ABB 13289.12605380  .00026048  00000-0  51203-2 0  1712
2 34812 074.0107 044.1014 0038096 207.6797 214.8703 14.62063927239309
0 COSMOS 2251 DEB
1 34812U 93036ABB 13290.15406233  .00023640  00000-0  46457-2 0  1724
2 34812 074.0109 042.1302 0038012 205.6816 225.5678 14.62099990239452
0 COSMOS 2251 DEB
1 34812U 93036ABB 13291.46464858  .00022017  00000-0  43233-2 0  1733
2 34812 074.0114 039.6172 0037894 203.1719 283.7353 14.62153431239655
0 COSMOS 2251 DEB
1 34812U 93036ABB 13292.77126601  .00021555  00000-0  42284-2 0  1741
2 34812 074.0112 037.1112 0037738 200.6210 321.3131 14.62206720239849
0 COSMOS 2251 DEB
1 34812U 93036ABB 13294.12231801  .00023077  00000-0  45210-2 0  1755
2 34812 074.0109 034.5197 0037558 197.9788 233.0346 14.62255664240038
0 COSMOS 2251 DEB
1 34812U 93036ABB 13295.27812090  .00024469  00000-0  47879-2 0  1767
2 34812 074.0106 032.3026 0037426 195.6929 197.2114 14.62300410240201
